     2.10           N:  GPS NAV DATA                        RINEX VERSION / TYPE
JPS2RIN 1.07        RUN BY              04-SEP-01 13:20     PGM / RUN BY / DATE
build October 30, 2000 (c) Topcon Positioning Systems       COMMENT
     .2235D-07   .2235D-07  -.1192D-06  -.1192D-06          ION ALPHA
     .1290D+06   .4915D+05  -.1966D+06   .3277D+06          ION BETA
     .465661287308D-08  .168753899743D-13   319488     1130 DELTA-UTC: A0,A1,T,W
    13                                                      LEAP SECONDS
                                                            END OF HEADER       
 7 01  9  4  9 59 44.0  .394901260734D-03  .387672116631D-10  .000000000000D+00
     .228000000000D+03 -.138750000000D+02  .543415492579D-08 -.101085380239D+01
    -.417232513428D-06  .120551300934D-01  .368431210518D-05  .515375120926D+04
     .208784000000D+06  .931322574615D-08 -.123603373253D+01  .264495611191D-06
     .944765906161D+00  .300218750000D+03 -.199943296834D+01 -.870929134837D-08
    -.653598653579D-10  .000000000000D+00  .113000000000D+04  .000000000000D+00
     .200000000000D+01  .000000000000D+00 -.186264514923D-08  .228000000000D+03
     .208799000000D+06                                                          
13 01  9  4  9 59 44.0 -.481214374304D-05 -.454747350886D-12  .000000000000D+00
     .600000000000D+01 -.225000000000D+02  .473519723997D-08  .781274356790D+00
    -.122375786304D-05  .188760610763D-02  .259466469288D-05  .515369892502D+04
     .208784000000D+06  .335276126862D-07  .193650899233D+01  .149011611938D-07
     .969553772961D+00  .333250000000D+03  .901582558418D-01 -.838142054838D-08
    -.188936441390D-09  .000000000000D+00  .113000000000D+04  .000000000000D+00
     .200000000000D+01  .000000000000D+00 -.116415321827D-07  .774000000000D+03
     .208799000000D+06                                                          
 1 01  9  4 10  0  0.0  .193310435861D-03  .147792889038D-11  .000000000000D+00
     .166000000000D+03 -.248750000000D+02  .474519765653D-08 -.311447558422D+01
    -.136531889439D-05  .504714518320D-02  .268220901489D-05  .515374749756D+04
     .208800000000D+06  .968575477600D-07  .195770043888D+01 -.260770320892D-07
     .965370522140D+00  .329406250000D+03 -.172314458485D+01 -.830927468607D-08
    -.173221501085D-09  .000000000000D+00  .113000000000D+04  .000000000000D+00
     .400000000000D+01  .000000000000D+00 -.325962901115D-08  .422000000000D+03
     .208799000000D+06                                                          
 4 01  9  4 10  0  0.0  .576881226152D-03 -.187583282241D-10  .000000000000D+00
     .195000000000D+03 -.250312500000D+02  .413231498465D-08  .238621932869D+01
    -.114925205708D-05  .545852934010D-02  .113416463137D-04  .515378430557D+04
     .208800000000D+06  .540167093277D-07 -.132884154953D+00  .147148966789D-06
     .973307813857D+00  .167062500000D+03 -.414280964991D+00 -.772817905253D-08
    -.375015620906D-09  .000000000000D+00  .113000000000D+04  .000000000000D+00
     .200000000000D+01  .000000000000D+00 -.605359673500D-08  .451000000000D+03
     .208799000000D+06                                                          
20 01  9  4 10  0  0.0 -.961269252002D-04 -.284217094304D-11  .000000000000D+00
     .700000000000D+01  .840000000000D+02  .446661462386D-08  .446043047963D+00
     .432878732681D-05  .225179223344D-02  .805407762527D-05  .515376849747D+04
     .208800000000D+06 -.633299350739D-07  .887068706772D+00 -.111758708954D-07
     .962211117944D+00  .223093750000D+03  .209855129752D+01 -.811105214359D-08
     .356800576462D-09  .000000000000D+00  .113000000000D+04  .000000000000D+00
     .400000000000D+01  .000000000000D+00 -.651925802231D-08  .775000000000D+03
     .208799000000D+06                                                          
24 01  9  4 10  0  0.0  .776080414653D-04  .284217094304D-11  .000000000000D+00
     .184000000000D+03 -.260312500000D+02  .380765860426D-08  .304524116332D+01
    -.128708779812D-05  .930418155622D-02  .118557363749D-04  .515358759117D+04
     .208800000000D+06  .204890966415D-06 -.116275609426D+00 -.596046447754D-07
     .983419802056D+00  .159218750000D+03 -.162872508271D+01 -.748816905516D-08
    -.369658254893D-09  .000000000000D+00  .113000000000D+04  .000000000000D+00
     .200000000000D+01  .000000000000D+00 -.139698386192D-08  .440000000000D+03
     .208799000000D+06                                                          
25 01  9  4 10  0  0.0  .172518193722D-04  .454747350886D-12  .000000000000D+00
     .234000000000D+03 -.868750000000D+02  .475805533496D-08 -.243271206338D+01
    -.435113906860D-05  .905651855282D-02  .969134271145D-05  .515377981186D+04
     .208800000000D+06  .912696123123D-07  .291828984191D+01 -.949949026108D-07
     .938410865676D+00  .180437500000D+03 -.194472917583D+01 -.802104839458D-08
    -.239295681911D-09  .000000000000D+00  .113000000000D+04  .000000000000D+00
     .200000000000D+01  .000000000000D+00 -.745058059692D-08  .490000000000D+03
     .208799000000D+06                                                          
